{
  "type": "FeatureCollection",
  "features": [
    {
      "type": "Feature",
      "properties": {
        "norad_id": 30153,
        "name": "FENGYUN 1C DEB",
        "group": "fengyun-1c-debris",
        "lat": 32.034908172063595,
        "lon": -27.177639052240092,
        "alt_km": 840.9842993321881,
        "timestamp": "2025-12-14T20:40:32.045959+00:00",
        "meta_object_name": "FENGYUN 1C DEB",
        "meta_object_id": "1999-025TJ",
        "meta_epoch": "2025-12-13T22:11:37.697568",
        "meta_mean_motion": 13.78774568,
        "meta_eccentricity": 0.0200719,
        "meta_inclination": 100.4667,
        "meta_ra_of_asc_node": 338.431,
        "meta_arg_of_pericenter": 2.6174,
        "meta_mean_anomaly": 61.679,
        "meta_ephemeris_type": 0,
        "meta_classification_type": "U",
        "meta_norad_cat_id": 30153,
        "meta_element_set_no": 999,
        "meta_rev_at_epoch": 94791,
        "meta_bstar": 0.0015674608,
        "meta_mean_motion_dot": 1.8e-05,
        "meta_mean_motion_ddot": 0,
        "tle_line1": "1 30153U 99025TJ  25347.92474187  .00001800  00000+0  15675-2 0  9994",
        "tle_line2": "2 30153 100.4667 338.4310 0200719   2.6174  61.6790 13.78774568947914"
      },
      "geometry": {
        "type": "Point",
        "coordinates": [
          -27.177639052240092,
          32.034908172063595
        ]
      }
    },
    {
      "type": "Feature",
      "properties": {
        "norad_id": 30154,
        "name": "FENGYUN 1C DEB",
        "group": "fengyun-1c-debris",
        "lat": -22.73630489265508,
        "lon": 34.014791833533806,
        "alt_km": 1055.7848994929054,
        "timestamp": "2025-12-14T20:40:32.045969+00:00",
        "meta_object_name": "FENGYUN 1C DEB",
        "meta_object_id": "1999-025TK",
        "meta_epoch": "2025-12-14T01:52:23.825856",
        "meta_mean_motion": 13.85995347,
        "meta_eccentricity": 0.0182983,
        "meta_inclination": 98.4504,
        "meta_ra_of_asc_node": 29.7357,
        "meta_arg_of_pericenter": 195.0837,
        "meta_mean_anomaly": 193.9479,
        "meta_ephemeris_type": 0,
        "meta_classification_type": "U",
        "meta_norad_cat_id": 30154,
        "meta_element_set_no": 999,
        "meta_rev_at_epoch": 95003,
        "meta_bstar": 0.0018169779,
        "meta_mean_motion_dot": 2.345e-05,
        "meta_mean_motion_ddot": 0,
        "tle_line1": "1 30154U 99025TK  25348.07805354  .00002345  00000+0  18170-2 0  9994",
        "tle_line2": "2 30154  98.4504  29.7357 0182983 195.0837 193.9479 13.85995347950035"
      },
      "geometry": {
        "type": "Point",
        "coordinates": [
          34.014791833533806,
          -22.73630489265508
        ]
      }
    },
    {
      "type": "Feature",
      "properties": {
        "norad_id": 30155,
        "name": "FENGYUN 1C DEB",
        "group": "fengyun-1c-debris",
        "lat": 72.8057558334031,
        "lon": -83.81039146987119,
        "alt_km": 1080.492767298566,
        "timestamp": "2025-12-14T20:40:32.045979+00:00",
        "meta_object_name": "FENGYUN 1C DEB",
        "meta_object_id": "1999-025TL",
        "meta_epoch": "2025-12-14T04:26:44.761920",
        "meta_mean_motion": 13.73808054,
        "meta_eccentricity": 0.0241911,
        "meta_inclination": 99.7515,
        "meta_ra_of_asc_node": 61.7393,
        "meta_arg_of_pericenter": 340.0392,
        "meta_mean_anomaly": 19.1416,
        "meta_ephemeris_type": 0,
        "meta_classification_type": "U",
        "meta_norad_cat_id": 30155,
        "meta_element_set_no": 999,
        "meta_rev_at_epoch": 93884,
        "meta_bstar": 0.0020974683,
        "meta_mean_motion_dot": 2.377e-05,
        "meta_mean_motion_ddot": 0,
        "tle_line1": "1 30155U 99025TL  25348.18524030  .00002377  00000+0  20975-2 0  9997",
        "tle_line2": "2 30155  99.7515  61.7393 0241911 340.0392  19.1416 13.73808054938843"
      },
      "geometry": {
        "type": "Point",
        "coordinates": [
          -83.81039146987119,
          72.8057558334031
        ]
      }
    },
    {
      "type": "Feature",
      "properties": {
        "norad_id": 30156,
        "name": "FENGYUN 1C DEB",
        "group": "fengyun-1c-debris",
        "lat": 49.27065440170898,
        "lon": -54.76385074815737,
        "alt_km": 1086.1279152720153,
        "timestamp": "2025-12-14T20:40:32.045990+00:00",
        "meta_object_name": "FENGYUN 1C DEB",
        "meta_object_id": "1999-025TM",
        "meta_epoch": "2025-12-14T04:50:01.811904",
        "meta_mean_motion": 13.80819592,
        "meta_eccentricity": 0.01992891,
        "meta_inclination": 98.9183,
        "meta_ra_of_asc_node": 315.1201,
        "meta_arg_of_pericenter": 258.9604,
        "meta_mean_anomaly": 110.7305,
        "meta_ephemeris_type": 0,
        "meta_classification_type": "U",
        "meta_norad_cat_id": 30156,
        "meta_element_set_no": 999,
        "meta_rev_at_epoch": 94711,
        "meta_bstar": 0.0017671692,
        "meta_mean_motion_dot": 2.12e-05,
        "meta_mean_motion_ddot": 0,
        "tle_line1": "1 30156U 99025TM  25348.20140986  .00002120  00000+0  17672-2 0  9991",
        "tle_line2": "2 30156  98.9183 315.1201 0199289 258.9604 110.7305 13.80819592947115"
      },
      "geometry": {
        "type": "Point",
        "coordinates": [
          -54.76385074815737,
          49.27065440170898
        ]
      }
    },
    {
      "type": "Feature",
      "properties": {
        "norad_id": 30157,
        "name": "FENGYUN 1C DEB",
        "group": "fengyun-1c-debris",
        "lat": 79.15743587210726,
        "lon": -40.84110935618975,
        "alt_km": 734.3079150130525,
        "timestamp": "2025-12-14T20:40:32.046000+00:00",
        "meta_object_name": "FENGYUN 1C DEB",
        "meta_object_id": "1999-025TN",
        "meta_epoch": "2025-12-13T18:21:00.321120",
        "meta_mean_motion": 14.45121525,
        "meta_eccentricity": 0.00370825,
        "meta_inclination": 98.7146,
        "meta_ra_of_asc_node": 84.8248,
        "meta_arg_of_pericenter": 190.2203,
        "meta_mean_anomaly": 323.3872,
        "meta_ephemeris_type": 0,
        "meta_classification_type": "U",
        "meta_norad_cat_id": 30157,
        "meta_element_set_no": 999,
        "meta_rev_at_epoch": 98087,
        "meta_bstar": 0.0024590066,
        "meta_mean_motion_dot": 8.637e-05,
        "meta_mean_motion_ddot": 0,
        "tle_line1": "1 30157U 99025TN  25347.76458705  .00008637  00000+0  24590-2 0  9999",
        "tle_line2": "2 30157  98.7146  84.8248 0037082 190.2203 323.3872 14.45121525980874"
      },
      "geometry": {
        "type": "Point",
        "coordinates": [
          -40.84110935618975,
          79.15743587210726
        ]
      }
    },
    {
      "type": "Feature",
      "properties": {
        "norad_id": 30160,
        "name": "FENGYUN 1C DEB",
        "group": "fengyun-1c-debris",
        "lat": 80.41674871565696,
        "lon": -130.72343195223635,
        "alt_km": 880.8259316434232,
        "timestamp": "2025-12-14T20:40:32.046010+00:00",
        "meta_object_name": "FENGYUN 1C DEB",
        "meta_object_id": "1999-025TR",
        "meta_epoch": "2025-12-14T02:41:29.131872",
        "meta_mean_motion": 13.42891845,
        "meta_eccentricity": 0.03428442,
        "meta_inclination": 98.8861,
        "meta_ra_of_asc_node": 296.5218,
        "meta_arg_of_pericenter": 124.3498,
        "meta_mean_anomaly": 303.6048,
        "meta_ephemeris_type": 0,
        "meta_classification_type": "U",
        "meta_norad_cat_id": 30160,
        "meta_element_set_no": 999,
        "meta_rev_at_epoch": 92432,
        "meta_bstar": 0.0010673399,
        "meta_mean_motion_dot": 8.27e-06,
        "meta_mean_motion_ddot": 0,
        "tle_line1": "1 30160U 99025TR  25348.11214273  .00000827  00000+0  10673-2 0  9993",
        "tle_line2": "2 30160  98.8861 296.5218 0342844 124.3498 303.6048 13.42891845924320"
      },
      "geometry": {
        "type": "Point",
        "coordinates": [
          -130.72343195223635,
          80.41674871565696
        ]
      }
    },
    {
      "type": "Feature",
      "properties": {
        "norad_id": 30161,
        "name": "FENGYUN 1C DEB",
        "group": "fengyun-1c-debris",
        "lat": 55.847112682171776,
        "lon": -39.49755501275444,
        "alt_km": 1303.0397808976159,
        "timestamp": "2025-12-14T20:40:32.046020+00:00",
        "meta_object_name": "FENGYUN 1C DEB",
        "meta_object_id": "1999-025TS",
        "meta_epoch": "2025-12-13T12:58:35.076864",
        "meta_mean_motion": 13.49724151,
        "meta_eccentricity": 0.03282226,
        "meta_inclination": 100.5056,
        "meta_ra_of_asc_node": 334.9825,
        "meta_arg_of_pericenter": 255.952,
        "meta_mean_anomaly": 225.806,
        "meta_ephemeris_type": 0,
        "meta_classification_type": "U",
        "meta_norad_cat_id": 30161,
        "meta_element_set_no": 999,
        "meta_rev_at_epoch": 92570,
        "meta_bstar": 0.0024424055,
        "meta_mean_motion_dot": 2.109e-05,
        "meta_mean_motion_ddot": 0,
        "tle_line1": "1 30161U 99025TS  25347.54068376  .00002109  00000+0  24424-2 0  9995",
        "tle_line2": "2 30161 100.5056 334.9825 0328222 255.9520 225.8060 13.49724151925704"
      },
      "geometry": {
        "type": "Point",
        "coordinates": [
          -39.49755501275444,
          55.847112682171776
        ]
      }
    }
  ]
}